name,source,collection_date,satellite_number,classification,launch_year,launch_number,launch_piece,epoch_year,epoch_day,inclination_deg,right_ascension_deg,eccentricity,argument_of_perigee_deg,mean_anomaly_deg,mean_motion,orbital_period_minutes,approximate_altitude_km,mean_motion_derivative,mean_motion_second_derivative,drag_term,element_set_number,revolution_number,line1,line2,category
STARLINK-6080,celestrak_active,2025-07-29T17:08:40.686141,56112,U,2023,46,V,2025,210.51288187,43.0036,291.3511,0.0002091,276.8999,83.1605,15.02558997,95.8365031173548,0,-7.324e-05,0.0,-0.0052728,999,12849,1 56112U 23046V   25210.51288187 -.00007324  00000+0 -52728-3 0  9994,2 56112  43.0036 291.3511 0002091 276.8999  83.1605 15.02558997128495,important
STARLINK-6113,celestrak_active,2025-07-29T17:08:40.686146,56113,U,2023,46,W,2025,210.50289763,43.004,291.2758,0.0001558,263.7125,96.354,15.02533728,95.83811485661371,0,-2.5e-06,0.0,-3.451000000000001e-05,999,12849,1 56113U 23046W   25210.50289763 -.00000250  00000+0 -34510-5 0  9997,2 56113  43.0040 291.2758 0001558 263.7125  96.3540 15.02533728128495,important
STARLINK-6101,celestrak_active,2025-07-29T17:08:40.686152,56115,U,2023,46,Y,2025,210.49845665,43.004,291.244,0.0001457,268.2034,91.8641,15.02532296,95.83820619586868,0,7.1e-07,0.0,0.00020324,999,12849,1 56115U 23046Y   25210.49845665  .00000071  00000+0  20324-4 0  9992,2 56115  43.0040 291.2440 0001457 268.2034  91.8641 15.02532296128493,important
STARLINK-6114,celestrak_active,2025-07-29T17:08:40.686159,56116,U,2023,46,Z,2025,210.50955457,43.0045,291.3267,0.0001699,275.186,84.8788,15.02534479,95.83806695460198,0,1.3e-07,0.0,0.00016039000000000003,999,12849,1 56116U 23046Z   25210.50955457  .00000013  00000+0  16039-4 0  9990,2 56116  43.0045 291.3267 0001699 275.1860  84.8788 15.02534479128498,important
STARLINK-6107,celestrak_active,2025-07-29T17:08:40.686164,56117,U,2023,46,AA,2025,210.48662853,43.0036,279.0393,0.0001459,273.1655,86.902,15.02533022,95.83815988837549,0,-3.76e-06,0.0,-0.00012771,999,12863,1 56117U 23046AA  25210.48662853 -.00000376  00000+0 -12771-4 0  9996,2 56117  43.0036 279.0393 0001459 273.1655  86.9020 15.02533022128637,important
STARLINK-6105,celestrak_active,2025-07-29T17:08:40.686170,56118,U,2023,46,AB,2025,210.46589265,43.0005,261.1713,0.0001171,294.811,65.2627,15.45084891,93.19876263031816,0,0.00016292,0.0,0.0034230000000000003,999,12884,1 56118U 23046AB  25210.46589265  .00016292  00000+0  34230-3 0  9995,2 56118  43.0005 261.1713 0001171 294.8110  65.2627 15.45084891128847,important
STARLINK-6091,celestrak_active,2025-07-29T17:08:40.686175,56119,U,2023,46,AC,2025,210.49661506,43.0032,279.1154,0.0001217,269.8125,90.2578,15.02534282,95.83807952010508,0,4.01e-06,0.0,0.00044726,999,12863,1 56119U 23046AC  25210.49661506  .00000401  00000+0  44726-4 0  9995,2 56119  43.0032 279.1154 0001217 269.8125  90.2578 15.02534282128632,important
STARLINK-6079,celestrak_active,2025-07-29T17:08:40.686181,56120,U,2023,46,AD,2025,210.504381,43.0035,279.1696,0.0001224,273.1123,86.9579,15.02537428,95.83787885515488,0,1.73e-06,0.0,0.00027872,999,12863,1 56120U 23046AD  25210.50438100  .00000173  00000+0  27872-4 0  9990,2 56120  43.0035 279.1696 0001224 273.1123  86.9579 15.02537428128630,important
STARLINK-6092,celestrak_active,2025-07-29T17:08:40.686186,56121,U,2023,46,AE,2025,210.49994818,43.0033,279.1391,0.0001509,278.1066,81.9605,15.02541604,95.8376124938235,0,-1.034e-05,0.0,-0.00061477,999,12863,1 56121U 23046AE  25210.49994818 -.00001034  00000+0 -61477-4 0  9990,2 56121  43.0033 279.1391 0001509 278.1066  81.9605 15.02541604128634,important
STARLINK-6094,celestrak_active,2025-07-29T17:08:40.686192,56122,U,2023,46,AF,2025,210.50400438,43.0042,291.2847,0.0001664,270.3518,89.7134,15.02536727,95.83792356777445,0,9.7e-07,0.0,0.00022251,999,12849,1 56122U 23046AF  25210.50400438  .00000097  00000+0  22251-4 0  9996,2 56122  43.0042 291.2847 0001664 270.3518  89.7134 15.02536727128491,important
STARLINK-6115,celestrak_active,2025-07-29T17:08:40.686198,56123,U,2023,46,AH,2025,210.48773799,43.0037,279.0465,0.0001477,274.0529,86.0145,15.02531783,95.83823891730614,0,-3.61e-06,0.0,-0.00011632000000000001,999,12863,1 56123U 23046AH  25210.48773799 -.00000361  00000+0 -11632-4 0  9994,2 56123  43.0037 279.0465 0001477 274.0529  86.0145 15.02531783128636,important
STARLINK-6126,celestrak_active,2025-07-29T17:08:40.686205,56124,U,2023,46,AJ,2025,210.50105551,43.0027,279.1469,0.0001578,273.0321,87.0341,15.02533129,95.83815306344569,0,-2.06e-06,0.0,-1.9502999999999998e-06,999,12863,1 56124U 23046AJ  25210.50105551 -.00000206  00000+0 -19503-6 0  9998,2 56124  43.0027 279.1469 0001578 273.0321  87.0341 15.02533129128637,important
STARLINK-6119,celestrak_active,2025-07-29T17:08:40.686211,56125,U,2023,46,AK,2025,210.4910618,43.0029,279.0664,0.000107,268.764,91.308,15.02535952,95.83797300046236,0,8.96e-06,0.0,0.0008142300000000001,999,12863,1 56125U 23046AK  25210.49106180  .00000896  00000+0  81423-4 0  9997,2 56125  43.0029 279.0664 0001070 268.7640  91.3080 15.02535952128632,important
STARLINK-6124,celestrak_active,2025-07-29T17:08:40.686216,56126,U,2023,46,AL,2025,210.48440405,43.0028,279.0197,0.0001095,271.9379,88.1338,15.02534911,95.83803939980467,0,-1.38e-06,0.0,4.8542e-05,999,12863,1 56126U 23046AL  25210.48440405 -.00000138  00000+0  48542-5 0  9994,2 56126  43.0028 279.0197 0001095 271.9379  88.1338 15.02534911128639,important
STARLINK-6104,celestrak_active,2025-07-29T17:08:40.686222,56127,U,2023,46,AM,2025,210.54311371,43.0028,278.5947,0.0001232,270.8985,89.1716,15.02534164,95.83808704665167,0,-6.97e-06,0.0,-0.00036521,999,12864,1 56127U 23046AM  25210.54311371 -.00000697  00000+0 -36521-4 0  9995,2 56127  43.0028 278.5947 0001232 270.8985  89.1716 15.02534164128643,important
STARLINK-6122,celestrak_active,2025-07-29T17:08:40.686228,56128,U,2023,46,AN,2025,210.49327983,43.0024,279.0821,0.0001125,275.8506,84.2208,15.02537858,95.8378514280337,0,5.2e-07,0.0,0.00018895,999,12863,1 56128U 23046AN  25210.49327983  .00000052  00000+0  18895-4 0  9993,2 56128  43.0024 279.0821 0001125 275.8506  84.2208 15.02537858128636,important
STARLINK-6121,celestrak_active,2025-07-29T17:08:40.686233,56129,U,2023,46,AP,2025,210.34805425,43.0026,227.8197,0.0001415,280.7661,79.3022,15.02534354,95.83807492763657,0,6.39e-06,0.0,0.00062382,999,12921,1 56129U 23046AP  25210.34805425  .00000639  00000+0  62382-4 0  9991,2 56129  43.0026 227.8197 0001415 280.7661  79.3022 15.02534354129217,important
STARLINK-6117,celestrak_active,2025-07-29T17:08:40.686238,56130,U,2023,46,AQ,2025,210.48107591,43.0036,278.9961,0.0001303,274.4941,85.5753,15.02531874,95.83823311291698,0,7.5e-07,0.0,0.00020621000000000002,999,12863,1 56130U 23046AQ  25210.48107591  .00000075  00000+0  20621-4 0  9991,2 56130  43.0036 278.9961 0001303 274.4941  85.5753 15.02531874128632,important
STARLINK-6120,celestrak_active,2025-07-29T17:08:40.686245,56131,U,2023,46,AR,2025,210.46664111,43.0032,278.8813,0.0001172,274.1276,85.9433,15.0253818,95.8378308895951,0,3.36e-06,0.0,0.00039952000000000005,999,12863,1 56131U 23046AR  25210.46664111  .00000336  00000+0  39952-4 0  9993,2 56131  43.0032 278.8813 0001172 274.1276  85.9433 15.02538180128632,important
STARLINK-6071,celestrak_active,2025-07-29T17:08:40.686251,56132,U,2023,46,AS,2025,210.47774642,43.0033,278.9722,0.0001642,269.6534,90.412,15.02533885,95.83810484247415,0,-2.37e-06,0.0,-2.4986000000000004e-05,999,12863,1 56132U 23046AS  25210.47774642 -.00000237  00000+0 -24986-5 0  9990,2 56132  43.0033 278.9722 0001642 269.6534  90.4120 15.02533885128633,important
STARLINK-5566,celestrak_active,2025-07-29T17:08:40.686257,56133,U,2023,46,AT,2025,210.52313365,43.0038,278.4458,0.0001573,273.2708,86.7954,15.02537068,95.83790181740794,0,-2.81e-06,0.0,-5.7085000000000007e-05,999,12864,1 56133U 23046AT  25210.52313365 -.00000281  00000+0 -57085-5 0  9993,2 56133  43.0038 278.4458 0001573 273.2708  86.7954 15.02537068128648,important
STARLINK-5564,celestrak_active,2025-07-29T17:08:40.686263,56134,U,2023,46,AU,2025,210.54089028,43.0026,278.5826,0.000123,274.87,85.2002,15.02537764,95.83785742372862,0,4.26e-06,0.0,0.00046579,999,12864,1 56134U 23046AU  25210.54089028  .00000426  00000+0  46579-4 0  9996,2 56134  43.0026 278.5826 0001230 274.8700  85.2002 15.02537764128646,important
STARLINK-5489,celestrak_active,2025-07-29T17:08:40.686268,56136,U,2023,46,AW,2025,210.46997546,43.0033,278.9081,0.0001122,272.0486,88.0228,15.02534038,95.83809508347392,0,-3.06e-06,0.0,-7.5733e-05,999,12863,1 56136U 23046AW  25210.46997546 -.00000306  00000+0 -75733-5 0  9996,2 56136  43.0033 278.9081 0001122 272.0486  88.0228 15.02534038128635,important
STARLINK-5090,celestrak_active,2025-07-29T17:08:40.686274,56137,U,2023,46,AX,2025,209.91595235,43.0034,281.6282,0.0001094,273.1551,86.9166,15.02535874,95.83797797562603,0,-1.91e-06,0.0,8.937e-06,999,12855,1 56137U 23046AX  25209.91595235 -.00000191  00000+0  89370-6 0  9998,2 56137  43.0034 281.6282 0001094 273.1551  86.9166 15.02535874128552,important
STARLINK-4774,celestrak_active,2025-07-29T17:08:40.686279,56138,U,2023,46,AY,2025,210.4633188,43.0037,278.8613,0.0001447,270.0885,89.9791,15.02532666,95.83818259562551,0,-2.2e-06,0.0,-1.1990000000000002e-05,999,12863,1 56138U 23046AY  25210.46331880 -.00000220  00000+0 -11990-5 0  9991,2 56138  43.0037 278.8613 0001447 270.0885  89.9791 15.02532666128632,important
STARLINK-5375,celestrak_active,2025-07-29T17:08:40.686285,56140,U,2023,46,BA,2025,210.52757627,43.0035,278.4842,0.0001582,276.1564,83.9099,15.02530988,95.83828962601069,0,-6.9e-06,0.0,-0.00036039,999,12864,1 56140U 23046BA  25210.52757627 -.00000690  00000+0 -36039-4 0  9993,2 56140  43.0035 278.4842 0001582 276.1564  83.9099 15.02530988128645,important
